NORAD_CAT_ID,OBJECT_NAME,OBJECT_TYPE,EPOCH,MEAN_MOTION,ECCENTRICITY,INCLINATION,RA_OF_ASC_NODE,ARG_OF_PERICENTER,MEAN_ANOMALY,BSTAR,MEAN_MOTION_DOT,MEAN_MOTION_DDOT,TLE_LINE0,TLE_LINE1,TLE_LINE2,SEMIMAJOR_AXIS,PERIOD,APOGEE,PERIGEE,DECAYED
49421.0,STARLINK-3112,PAYLOAD,2024-07-07 22:16:09,15.08840948,0.0001566,53.2187,86.2576,100.6789,259.438,0.00020528,2.981e-05,0.0,0 STARLINK-3112,1 49421U 21104P   24189.92788514  .00002981  00000-0  20528-3 0  9996,2 49421  53.2187  86.2576 0001566 100.6789 259.4380 15.08840948146572,6917.877,95.437,540.826,538.659,0.0
49421.0,STARLINK-3112,PAYLOAD,2024-07-08 22:06:56,15.08838897,0.0001375,53.2175,81.7956,104.6667,255.4477,0.00013709,1.894e-05,0.0,0 STARLINK-3112,1 49421U 21104P   24190.92148578  .00001894  00000-0  13709-3 0  9993,2 49421  53.2175  81.7956 0001375 104.6667 255.4477 15.08838897146728,6917.884,95.438,540.7,538.798,0.0
49421.0,STARLINK-3112,PAYLOAD,2024-07-08 23:42:19,15.08840422,0.0001306,53.2175,81.5001,97.688,262.426,0.00016,2.259e-05,0.0,0 STARLINK-3112,1 49421U 21104P   24190.98772544  .00002259  00000-0  16000-3 0  9998,2 49421  53.2175  81.5001 0001306  97.6880 262.4260 15.08840422147826,6917.879,95.438,540.648,538.841,0.0
49421.0,STARLINK-3112,PAYLOAD,2024-07-09 09:14:37,15.08851345,0.0001123,53.2165,79.7148,92.0529,268.0592,0.00022178,3.245e-05,0.0,0 STARLINK-3112,1 49421U 21104P   24191.38515813  .00003245  00000-0  22178-3 0  9996,2 49421  53.2165  79.7148 0001123  92.0529 268.0592 15.08851345147884,6917.846,95.437,540.488,538.934,0.0
49421.0,STARLINK-3112,PAYLOAD,2024-07-09 20:22:20,15.08827868,0.0001304,53.2167,77.6335,89.2637,270.8504,-0.00012536,-2.282e-05,0.0,0 STARLINK-3112,1 49421U 21104P   24191.84885223 -.00002282  00000-0 -12536-3 0  9991,2 49421  53.2167  77.6335 0001304  89.2637 270.8504 15.08827868147955,6917.917,95.438,540.685,538.88,0.0
49421.0,STARLINK-3112,PAYLOAD,2024-07-09 21:57:44,15.0882844,0.000147,53.2165,77.3358,83.2988,276.8171,-0.00011265,-2.08e-05,0.0,0 STARLINK-3112,1 49421U 21104P   24191.91509269 -.00002080  00000-0 -11265-3 0  9996,2 49421  53.2165  77.3358 0001470  83.2988 276.8171 15.08828440146875,6917.916,95.438,540.798,538.764,0.0
49421.0,STARLINK-3112,PAYLOAD,2024-07-10 09:05:25,15.0884218,0.0001302,53.2172,75.2564,92.7892,267.3249,0.00010012,1.306e-05,0.0,0 STARLINK-3112,1 49421U 21104P   24192.37876638  .00001306  00000-0  10012-3 0  9991,2 49421  53.2172  75.2564 0001302  92.7892 267.3249 15.08842180148030,6917.874,95.437,540.639,538.838,0.0
49421.0,STARLINK-3112,PAYLOAD,2024-07-10 20:13:07,15.08835802,0.0001539,53.2179,73.1818,117.1931,242.9218,0.00010026,1.308e-05,0.0,0 STARLINK-3112,1 49421U 21104P   24192.84245163  .00001308  00000-0  10026-3 0  9993,2 49421  53.2179  73.1818 0001539 117.1931 242.9218 15.08835802148100,6917.893,95.438,540.823,538.694,0.0
49421.0,STARLINK-3112,PAYLOAD,2024-07-10 21:48:30,15.08837073,0.0001607,53.2174,72.8849,121.5779,238.537,0.00012583,1.715e-05,0.0,0 STARLINK-3112,1 49421U 21104P   24192.90869127  .00001715  00000-0  12583-3 0  9994,2 49421  53.2174  72.8849 0001607 121.5779 238.5370 15.08837073147022,6917.889,95.438,540.866,538.643,0.0
49421.0,STARLINK-3112,PAYLOAD,2024-07-11 02:34:40,15.08844389,0.00014,53.2174,71.9841,83.2293,276.8858,0.0002418,3.563e-05,0.0,0 STARLINK-3112,1 49421U 21104P   24193.10740949  .00003563  00000-0  24180-3 0  9996,2 49421  53.2174  71.9841 0001400  83.2293 276.8858 15.08844389147057,6917.867,95.437,540.7,538.763,0.0
49421.0,STARLINK-3112,PAYLOAD,2024-07-12 08:46:59,15.08850737,0.0001258,53.2164,66.3332,84.9468,275.1668,0.00028486,4.25e-05,0.0,0 STARLINK-3112,1 49421U 21104P   24194.36596640  .00004250  00000-0  28486-3 0  9999,2 49421  53.2164  66.3332 0001258  84.9468 275.1668 15.08850737148339,6917.848,95.437,540.583,538.842,0.0
49421.0,STARLINK-3112,PAYLOAD,2024-07-12 21:30:04,15.08839351,0.0001046,53.217,63.9551,86.4415,273.6696,4.484e-05,4.26e-06,0.0,0 STARLINK-3112,1 49421U 21104P   24194.89588980  .00000426  00000-0  44840-4 0  9999,2 49421  53.2170  63.9551 0001046  86.4415 273.6696 15.08839351148418,6917.882,95.438,540.471,539.024,0.0
49421.0,STARLINK-3112,PAYLOAD,2024-07-13 08:37:46,15.08854206,0.0001221,53.2159,61.8734,92.5089,267.6043,0.00053561,8.25e-05,0.0,0 STARLINK-3112,1 49421U 21104P   24195.35956506  .00008250  00000-0  53561-3 0  9996,2 49421  53.2159  61.8734 0001221  92.5089 267.6043 15.08854206148487,6917.837,95.437,540.547,538.857,0.0
49421.0,STARLINK-3112,PAYLOAD,2024-07-13 14:59:19,15.08838347,0.0001493,53.216,60.6844,93.914,266.2023,7.0453e-05,8.33e-06,0.0,0 STARLINK-3112,1 49421U 21104P   24195.62452954  .00000833  00000-0  70453-4 0  9993,2 49421  53.2160  60.6844 0001493  93.9140 266.2023 15.08838347147437,6917.885,95.438,540.783,538.718,0.0
49421.0,STARLINK-3112,PAYLOAD,2024-07-13 21:20:51,15.0884063,0.0001296,53.2152,59.4953,98.3273,261.7866,0.00023002,3.375e-05,0.0,0 STARLINK-3112,1 49421U 21104P   24195.88948967  .00003375  00000-0  23002-3 0  9996,2 49421  53.2152  59.4953 0001296  98.3273 261.7866 15.08840630148560,6917.878,95.438,540.64,538.847,0.0
49421.0,STARLINK-3112,PAYLOAD,2024-07-14 08:28:33,15.08847295,0.0001375,53.2166,57.4124,105.2183,254.8961,0.0005047,7.755e-05,0.0,0 STARLINK-3112,1 49421U 21104P   24196.35316894  .00007755  00000-0  50470-3 0  9992,2 49421  53.2166  57.4124 0001375 105.2183 254.8961 15.08847295147549,6917.858,95.437,540.674,538.772,0.0
49421.0,STARLINK-3112,PAYLOAD,2024-07-14 21:11:39,15.08842917,0.0001423,53.2175,55.036,93.5234,266.5921,0.0002764,4.114e-05,0.0,0 STARLINK-3112,1 49421U 21104P   24196.88309107  .00004114  00000-0  27640-3 0  9998,2 49421  53.2175  55.0360 0001423  93.5234 266.5921 15.08842917147626,6917.871,95.437,540.721,538.752,0.0
49421.0,STARLINK-3112,PAYLOAD,2024-07-15 21:02:26,15.08833706,0.0001429,53.218,50.5747,98.8361,261.2793,6.8695e-06,-1.79e-06,0.0,0 STARLINK-3112,1 49421U 21104P   24197.87669635 -.00000179  00000-0  68695-5 0  9998,2 49421  53.2180  50.5747 0001429  98.8361 261.2793 15.08833706148868,6917.9,95.438,540.753,538.776,0.0
49421.0,STARLINK-3112,PAYLOAD,2024-07-16 20:53:13,15.08846415,0.0001366,53.2174,46.1129,97.4381,262.6766,0.00020925,3.044e-05,0.0,0 STARLINK-3112,1 49421U 21104P   24198.87029209  .00003044  00000-0  20925-3 0  9991,2 49421  53.2174  46.1129 0001366  97.4381 262.6766 15.08846415149017,6917.861,95.437,540.671,538.781,0.0
49421.0,STARLINK-3112,PAYLOAD,2024-07-17 06:25:31,15.08862332,0.000131,53.2175,44.3324,91.9115,268.2027,0.00040528,6.172e-05,0.0,0 STARLINK-3112,1 49421U 21104P   24199.26772212  .00006172  00000-0  40528-3 0  9990,2 49421  53.2175  44.3324 0001310  91.9115 268.2027 15.08862332149072,6917.812,95.436,540.583,538.771,0.0
49421.0,STARLINK-3112,PAYLOAD,2024-07-17 20:44:00,15.08833278,0.0001563,53.2184,41.6599,112.0074,248.1084,-9.5435e-05,-1.806e-05,0.0,0 STARLINK-3112,1 49421U 21104P   24199.86389700 -.00001806  00000-0 -95435-4 0  9991,2 49421  53.2184  41.6599 0001563 112.0074 248.1084 15.08833278149162,6917.901,95.438,540.847,538.685,0.0
49421.0,STARLINK-3112,PAYLOAD,2024-07-18 06:16:19,15.08852789,0.0001302,53.2181,39.8723,95.1905,264.9235,0.00056421,8.706e-05,0.0,0 STARLINK-3112,1 49421U 21104P   24200.26133198  .00008706  00000-0  56421-3 0  9991,2 49421  53.2181  39.8723 0001302  95.1905 264.9235 15.08852789149221,6917.841,95.437,540.607,538.806,0.0
49421.0,STARLINK-3112,PAYLOAD,2024-07-18 20:34:48,15.088383,0.0001367,53.2165,37.1943,90.9587,269.1562,0.0011859,0.00018635,0.0,0 STARLINK-3112,1 49421U 21104P   24200.85750271  .00018635  00000-0  11859-2 0  9990,2 49421  53.2165  37.1943 0001367  90.9587 269.1562 15.08838300149311,6917.886,95.438,540.696,538.805,0.0
49421.0,STARLINK-3112,PAYLOAD,2024-07-19 06:07:06,15.08859808,0.0001602,53.217,35.4066,70.4015,289.715,0.0017621,0.00027882,0.0,0 STARLINK-3112,1 49421U 21104P   24201.25494062  .00027882  00000-0  17621-2 0  9995,2 49421  53.2170  35.4066 0001602  70.4015 289.7150 15.08859808148287,6917.82,95.436,540.793,538.577,0.0
49421.0,STARLINK-3112,PAYLOAD,2024-07-19 20:25:35,15.08844634,0.0001117,53.2161,32.7353,80.2447,279.8671,0.0015486,0.00024447,0.0,0 STARLINK-3112,1 49421U 21104P   24201.85110205  .00024447  00000-0  15486-2 0  9996,2 49421  53.2161  32.7353 0001117  80.2447 279.8671 15.08844634149465,6917.866,95.437,540.504,538.958,0.0
49421.0,STARLINK-3112,PAYLOAD,2024-07-20 12:19:26,15.08848571,0.0001108,53.2162,29.7588,128.7938,231.3154,0.00099858,0.00015644,0.0,0 STARLINK-3112,1 49421U 21104P   24202.51350063  .00015644  00000-0  99858-3 0  9993,2 49421  53.2162  29.7588 0001108 128.7938 231.3154 15.08848571149569,6917.854,95.437,540.486,538.953,0.0
49421.0,STARLINK-3112,PAYLOAD,2024-07-20 20:16:22,15.08847341,0.0001039,53.2165,28.2708,94.9095,265.2016,0.00057666,8.903e-05,0.0,0 STARLINK-3112,1 49421U 21104P   24202.84470203  .00008903  00000-0  57666-3 0  9999,2 49421  53.2165  28.2708 0001039  94.9095 265.2016 15.08847341148523,6917.858,95.437,540.442,539.004,0.0
49421.0,STARLINK-3112,PAYLOAD,2024-07-21 12:10:13,15.08834331,0.0001361,53.2164,25.2983,86.4573,273.6575,-2.2687e-05,-6.49e-06,0.0,0 STARLINK-3112,1 49421U 21104P   24203.50710520 -.00000649  00000-0 -22687-4 0  9999,2 49421  53.2164  25.2983 0001361  86.4573 273.6575 15.08834331149719,6917.898,95.438,540.704,538.821,0.0
49421.0,STARLINK-3112,PAYLOAD,2024-07-21 18:31:46,15.0883606,0.0001354,53.2161,24.1098,88.2203,271.8944,0.00010389,1.366e-05,0.0,0 STARLINK-3112,1 49421U 21104P   24203.77206495  .00001366  00000-0  10389-3 0  9999,2 49421  53.2161  24.1098 0001354  88.2203 271.8944 15.08836060148667,6917.892,95.438,540.694,538.821,0.0
49421.0,STARLINK-3112,PAYLOAD,2024-07-22 12:01:00,15.08848743,0.0001229,53.216,20.839,89.0225,271.0908,0.00041581,6.337e-05,0.0,0 STARLINK-3112,1 49421U 21104P   24204.50070359  .00006337  00000-0  41581-3 0  9990,2 49421  53.2160  20.8390 0001229  89.0225 271.0908 15.08848743149864,6917.854,95.437,540.569,538.868,0.0
